[{"OBJECT_NAME":"STARLINK-3906","OBJECT_ID":"2022-051BB","EPOCH":"2026-03-09T12:38:53.218176","MEAN_MOTION":15.08836817,"ECCENTRICITY":0.00014948,"INCLINATION":53.2175,"RA_OF_ASC_NODE":119.8095,"ARG_OF_PERICENTER":72.8815,"MEAN_ANOMALY":287.2341,"EPHEMERIS_TYPE":0,"CLASSIFICATION_TYPE":"U","NORAD_CAT_ID":52585,"ELEMENT_SET_NO":999,"REV_AT_EPOCH":21156,"BSTAR":3.6390611e-5,"MEAN_MOTION_DOT":2.91e-6,"MEAN_MOTION_DDOT":0},{"OBJECT_NAME":"LEMUR-2-STELLA","OBJECT_ID":"2024-149BT","EPOCH":"2026-03-09T17:26:15.951264","MEAN_MOTION":15.09464064,"ECCENTRICITY":0.0001299,"INCLINATION":97.6764,"RA_OF_ASC_NODE":150.9122,"ARG_OF_PERICENTER":95.1117,"MEAN_ANOMALY":265.026,"EPHEMERIS_TYPE":0,"CLASSIFICATION_TYPE":"U","NORAD_CAT_ID":60533,"ELEMENT_SET_NO":999,"REV_AT_EPOCH":8548,"BSTAR":0.00085776432,"MEAN_MOTION_DOT":0.00013685,"MEAN_MOTION_DDOT":0}]
