STARLINK-3906           
1 52585U 22051BB  26068.52700484  .00000291  00000+0  36391-4 0  9994
2 52585  53.2175 119.8095 0001494  72.8815 287.2341 15.08836817211561
LEMUR-2-STELLA          
1 60533U 24149BT  26068.72657350  .00013685  00000+0  85776-3 0  9992
2 60533  97.6764 150.9122 0001299  95.1117 265.0260 15.09464064 85488
